KUIPER-00198            
1 67770U 26030G   26064.91881064  .00030662  00000+0  87207-3 0  9996
2 67770  51.8811 237.2953 0003362  38.2471 321.8754 15.35877345  4511
KUIPER-00199            
1 67771U 26030H   26064.94115074  .00025734  00000+0  77330-3 0  9991
2 67771  51.8815 237.4376 0010418  50.0479 310.1420 15.34198045  4510
KUIPER-00200            
1 67772U 26030J   26064.90529324  .00033329  00000+0  91660-3 0  9996
2 67772  51.8804 237.2100 0001238 224.0020 136.0868 15.36886040  4519
KUIPER-00203            
1 67773U 26030K   26064.91668981 -.01101909  00000+0 -51551-1 0  9997
2 67773  51.8824 237.8440 0011657  49.5093  11.9152 15.22279697  3077
KUIPER-00205            
1 67774U 26030L   26064.84952503  .00029823  00000+0  83942-3 0  9998
2 67774  51.8809 237.5827 0003014  11.9658 348.1400 15.36217937  4509
KUIPER-00208            
1 67775U 26030M   26064.88949589  .00028355  00000+0  90025-3 0  9992
2 67775  51.8832 237.8446 0014762  49.7510 310.4764 15.32341808  4500
KUIPER-00209            
1 67776U 26030N   26064.91668981  .00064356  00000+0  21547-2 0  9994
2 67776  51.8819 237.7799 0012913  56.2924  61.5669 15.30270503  3906
KUIPER-00213            
1 67777U 26030P   26064.95531700  .00031067  00000+0  97697-3 0  9990
2 67777  51.8803 237.5273 0014942  54.0972 306.1397 15.32596197  4514
KUIPER-00214            
1 67778U 26030Q   26064.90806830  .00026857  00000+0  74895-3 0  9991
2 67778  51.8839 237.2330 0000502 202.1753 157.9212 15.36566369  4515
KUIPER-00215            
1 67779U 26030R   26064.93951140  .00025940  00000+0  77706-3 0  9996
2 67779  51.8846 237.4358 0010081  49.4504 310.7357 15.34294551  4513
KUIPER-00218            
1 67780U 26030S   26064.92969433  .00031727  00000+0  92650-3 0  9996
2 67780  51.8840 237.3716 0006695  38.9170 321.2297 15.35017215  4515
KUIPER-00220            
1 67781U 26030T   26064.93594373  .00032615  00000+0  96435-3 0  9997
2 67781  51.8820 237.4053 0008476  44.7441 315.4227 15.34598356  4511
KUIPER-00222            
1 67782U 26030U   26064.89379247  .00027382  00000+0  86652-3 0  9999
2 67782  51.8800 237.8641 0017442  51.3163 308.9379 15.32424177  4506
KUIPER-00223            
1 67783U 26030V   26064.87776301  .00029421  00000+0  88563-3 0  9999
2 67783  51.8832 237.7681 0012391  47.6240 312.5792 15.34047466  4501
KUIPER-00225            
1 67784U 26030W   26064.92049913  .00025008  00000+0  71702-3 0  9992
2 67784  51.8811 237.3061 0004223  29.2682 330.8540 15.35733269  4517
KUIPER-00226            
1 67785U 26030X   26064.90542129 -.00004567  00000+0 -13627-3 0  9999
2 67785  51.8805 237.9392 0019669  63.0901 297.2090 15.31192531  4506
