[{"OBJECT_NAME":"KUIPER-00198","OBJECT_ID":"2026-030G","EPOCH":"2026-03-05T22:03:05.239296","MEAN_MOTION":15.35877345,"ECCENTRICITY":0.00033623,"INCLINATION":51.8811,"RA_OF_ASC_NODE":237.2953,"ARG_OF_PERICENTER":38.2471,"MEAN_ANOMALY":321.8754,"EPHEMERIS_TYPE":0,"CLASSIFICATION_TYPE":"U","NORAD_CAT_ID":67770,"ELEMENT_SET_NO":999,"REV_AT_EPOCH":451,"BSTAR":0.00087207043,"MEAN_MOTION_DOT":0.00030662,"MEAN_MOTION_DDOT":0},{"OBJECT_NAME":"KUIPER-00199","OBJECT_ID":"2026-030H","EPOCH":"2026-03-05T22:35:15.423936","MEAN_MOTION":15.34198045,"ECCENTRICITY":0.00104182,"INCLINATION":51.8815,"RA_OF_ASC_NODE":237.4376,"ARG_OF_PERICENTER":50.0479,"MEAN_ANOMALY":310.142,"EPHEMERIS_TYPE":0,"CLASSIFICATION_TYPE":"U","NORAD_CAT_ID":67771,"ELEMENT_SET_NO":999,"REV_AT_EPOCH":451,"BSTAR":0.00077329502,"MEAN_MOTION_DOT":0.00025734,"MEAN_MOTION_DDOT":0},{"OBJECT_NAME":"KUIPER-00200","OBJECT_ID":"2026-030J","EPOCH":"2026-03-05T21:43:37.335936","MEAN_MOTION":15.3688604,"ECCENTRICITY":0.00012387,"INCLINATION":51.8804,"RA_OF_ASC_NODE":237.21,"ARG_OF_PERICENTER":224.002,"MEAN_ANOMALY":136.0868,"EPHEMERIS_TYPE":0,"CLASSIFICATION_TYPE":"U","NORAD_CAT_ID":67772,"ELEMENT_SET_NO":999,"REV_AT_EPOCH":451,"BSTAR":0.00091660326,"MEAN_MOTION_DOT":0.00033329,"MEAN_MOTION_DDOT":0},{"OBJECT_NAME":"KUIPER-00203","OBJECT_ID":"2026-030K","EPOCH":"2026-03-05T22:00:01.999584","MEAN_MOTION":15.22279697,"ECCENTRICITY":0.00116573,"INCLINATION":51.8824,"RA_OF_ASC_NODE":237.844,"ARG_OF_PERICENTER":49.5093,"MEAN_ANOMALY":11.9152,"EPHEMERIS_TYPE":0,"CLASSIFICATION_TYPE":"U","NORAD_CAT_ID":67773,"ELEMENT_SET_NO":999,"REV_AT_EPOCH":307,"BSTAR":-0.051550647,"MEAN_MOTION_DOT":-0.01101909,"MEAN_MOTION_DDOT":0},{"OBJECT_NAME":"KUIPER-00205","OBJECT_ID":"2026-030L","EPOCH":"2026-03-05T20:23:18.962592","MEAN_MOTION":15.36217937,"ECCENTRICITY":0.00030142,"INCLINATION":51.8809,"RA_OF_ASC_NODE":237.5827,"ARG_OF_PERICENTER":11.9658,"MEAN_ANOMALY":348.14,"EPHEMERIS_TYPE":0,"CLASSIFICATION_TYPE":"U","NORAD_CAT_ID":67774,"ELEMENT_SET_NO":999,"REV_AT_EPOCH":450,"BSTAR":0.00083942269,"MEAN_MOTION_DOT":0.00029823,"MEAN_MOTION_DDOT":0},{"OBJECT_NAME":"KUIPER-00208","OBJECT_ID":"2026-030M","EPOCH":"2026-03-05T21:20:52.444896","MEAN_MOTION":15.32341808,"ECCENTRICITY":0.00147621,"INCLINATION":51.8832,"RA_OF_ASC_NODE":237.8446,"ARG_OF_PERICENTER":49.751,"MEAN_ANOMALY":310.4764,"EPHEMERIS_TYPE":0,"CLASSIFICATION_TYPE":"U","NORAD_CAT_ID":67775,"ELEMENT_SET_NO":999,"REV_AT_EPOCH":450,"BSTAR":0.00090024733,"MEAN_MOTION_DOT":0.00028355,"MEAN_MOTION_DDOT":0},{"OBJECT_NAME":"KUIPER-00209","OBJECT_ID":"2026-030N","EPOCH":"2026-03-05T22:00:01.999584","MEAN_MOTION":15.30270503,"ECCENTRICITY":0.00129134,"INCLINATION":51.8819,"RA_OF_ASC_NODE":237.7799,"ARG_OF_PERICENTER":56.2924,"MEAN_ANOMALY":61.5669,"EPHEMERIS_TYPE":0,"CLASSIFICATION_TYPE":"U","NORAD_CAT_ID":67776,"ELEMENT_SET_NO":999,"REV_AT_EPOCH":390,"BSTAR":0.0021547443,"MEAN_MOTION_DOT":0.00064356,"MEAN_MOTION_DDOT":0},{"OBJECT_NAME":"KUIPER-00213","OBJECT_ID":"2026-030P","EPOCH":"2026-03-05T22:55:39.388800","MEAN_MOTION":15.32596197,"ECCENTRICITY":0.00149423,"INCLINATION":51.8803,"RA_OF_ASC_NODE":237.5273,"ARG_OF_PERICENTER":54.0972,"MEAN_ANOMALY":306.1397,"EPHEMERIS_TYPE":0,"CLASSIFICATION_TYPE":"U","NORAD_CAT_ID":67777,"ELEMENT_SET_NO":999,"REV_AT_EPOCH":451,"BSTAR":0.00097697323,"MEAN_MOTION_DOT":0.00031067,"MEAN_MOTION_DDOT":0},{"OBJECT_NAME":"KUIPER-00214","OBJECT_ID":"2026-030Q","EPOCH":"2026-03-05T21:47:37.101120","MEAN_MOTION":15.36566369,"ECCENTRICITY":5.027e-5,"INCLINATION":51.8839,"RA_OF_ASC_NODE":237.233,"ARG_OF_PERICENTER":202.1753,"MEAN_ANOMALY":157.9212,"EPHEMERIS_TYPE":0,"CLASSIFICATION_TYPE":"U","NORAD_CAT_ID":67778,"ELEMENT_SET_NO":999,"REV_AT_EPOCH":451,"BSTAR":0.00074895416,"MEAN_MOTION_DOT":0.00026857,"MEAN_MOTION_DDOT":0},{"OBJECT_NAME":"KUIPER-00215","OBJECT_ID":"2026-030R","EPOCH":"2026-03-05T22:32:53.784960","MEAN_MOTION":15.34294551,"ECCENTRICITY":0.00100813,"INCLINATION":51.8846,"RA_OF_ASC_NODE":237.4358,"ARG_OF_PERICENTER":49.4504,"MEAN_ANOMALY":310.7357,"EPHEMERIS_TYPE":0,"CLASSIFICATION_TYPE":"U","NORAD_CAT_ID":67779,"ELEMENT_SET_NO":999,"REV_AT_EPOCH":451,"BSTAR":0.00077706304,"MEAN_MOTION_DOT":0.0002594,"MEAN_MOTION_DDOT":0},{"OBJECT_NAME":"KUIPER-00218","OBJECT_ID":"2026-030S","EPOCH":"2026-03-05T22:18:45.590112","MEAN_MOTION":15.35017215,"ECCENTRICITY":0.00066959,"INCLINATION":51.884,"RA_OF_ASC_NODE":237.3716,"ARG_OF_PERICENTER":38.917,"MEAN_ANOMALY":321.2297,"EPHEMERIS_TYPE":0,"CLASSIFICATION_TYPE":"U","NORAD_CAT_ID":67780,"ELEMENT_SET_NO":999,"REV_AT_EPOCH":451,"BSTAR":0.00092649543,"MEAN_MOTION_DOT":0.00031727,"MEAN_MOTION_DDOT":0},{"OBJECT_NAME":"KUIPER-00220","OBJECT_ID":"2026-030T","EPOCH":"2026-03-05T22:27:45.538272","MEAN_MOTION":15.34598356,"ECCENTRICITY":0.00084763,"INCLINATION":51.882,"RA_OF_ASC_NODE":237.4053,"ARG_OF_PERICENTER":44.7441,"MEAN_ANOMALY":315.4227,"EPHEMERIS_TYPE":0,"CLASSIFICATION_TYPE":"U","NORAD_CAT_ID":67781,"ELEMENT_SET_NO":999,"REV_AT_EPOCH":451,"BSTAR":0.00096435316,"MEAN_MOTION_DOT":0.00032615,"MEAN_MOTION_DDOT":0},{"OBJECT_NAME":"KUIPER-00222","OBJECT_ID":"2026-030U","EPOCH":"2026-03-05T21:27:03.669408","MEAN_MOTION":15.32424177,"ECCENTRICITY":0.00174421,"INCLINATION":51.88,"RA_OF_ASC_NODE":237.8641,"ARG_OF_PERICENTER":51.3163,"MEAN_ANOMALY":308.9379,"EPHEMERIS_TYPE":0,"CLASSIFICATION_TYPE":"U","NORAD_CAT_ID":67782,"ELEMENT_SET_NO":999,"REV_AT_EPOCH":450,"BSTAR":0.00086651796,"MEAN_MOTION_DOT":0.00027382,"MEAN_MOTION_DDOT":0},{"OBJECT_NAME":"KUIPER-00223","OBJECT_ID":"2026-030V","EPOCH":"2026-03-05T21:03:58.724064","MEAN_MOTION":15.34047466,"ECCENTRICITY":0.0012391,"INCLINATION":51.8832,"RA_OF_ASC_NODE":237.7681,"ARG_OF_PERICENTER":47.624,"MEAN_ANOMALY":312.5792,"EPHEMERIS_TYPE":0,"CLASSIFICATION_TYPE":"U","NORAD_CAT_ID":67783,"ELEMENT_SET_NO":999,"REV_AT_EPOCH":450,"BSTAR":0.0008856284,"MEAN_MOTION_DOT":0.00029421,"MEAN_MOTION_DDOT":0},{"OBJECT_NAME":"KUIPER-00225","OBJECT_ID":"2026-030W","EPOCH":"2026-03-05T22:05:31.124832","MEAN_MOTION":15.35733269,"ECCENTRICITY":0.00042239,"INCLINATION":51.8811,"RA_OF_ASC_NODE":237.3061,"ARG_OF_PERICENTER":29.2682,"MEAN_ANOMALY":330.854,"EPHEMERIS_TYPE":0,"CLASSIFICATION_TYPE":"U","NORAD_CAT_ID":67784,"ELEMENT_SET_NO":999,"REV_AT_EPOCH":451,"BSTAR":0.0007170211,"MEAN_MOTION_DOT":0.00025008,"MEAN_MOTION_DDOT":0},{"OBJECT_NAME":"KUIPER-00226","OBJECT_ID":"2026-030X","EPOCH":"2026-03-05T21:43:48.399456","MEAN_MOTION":15.31192531,"ECCENTRICITY":0.00196696,"INCLINATION":51.8805,"RA_OF_ASC_NODE":237.9392,"ARG_OF_PERICENTER":63.0901,"MEAN_ANOMALY":297.209,"EPHEMERIS_TYPE":0,"CLASSIFICATION_TYPE":"U","NORAD_CAT_ID":67785,"ELEMENT_SET_NO":999,"REV_AT_EPOCH":450,"BSTAR":-0.00013627059,"MEAN_MOTION_DOT":-4.567e-5,"MEAN_MOTION_DDOT":0}]
